STARLINK-1347           
1 45586U 20025BH  20127.50001157  .04913633  00000-0  31051-1 0  9998
2 45586  53.0073 331.2806 0002653 158.6761  23.3816 15.72226174  2878
STARLINK-1349           
1 45587U 20025BJ  20127.50001157  .05024196  00000-0  31406-1 0  9991
2 45587  53.0074 331.2664 0002293 159.4026  29.9559 15.72396829  2876
STARLINK-1360           
1 45588U 20025BK  20127.58334491  .08646700  00000-0  54696-1 0  9990
2 45588  53.0077 330.9005 0001971  45.3410 231.9681 15.71156183  2885
STARLINK-1364           
1 45589U 20025BL  20127.50001157  .04688967  00000-0  30318-1 0  9995
2 45589  53.0071 331.3090 0003157 158.8103   8.4731 15.71857822  2876
STARLINK-1365           
1 45590U 20025BM  20127.58334491  .08225250  00000-0  52900-1 0  9992
2 45590  53.0076 330.9046 0002066 351.7212 283.3941 15.70993597  2889
FALCON 9 DEB            
1 45591U 20025BN  20127.43161392  .00504402  11492-4  42961-3 0  9995
2 45591  53.0068 330.4219 0082986 102.7911 258.2409 16.05547486  2181
FALCON 9 DEB            
1 45592U 20025BP  20127.42600052  .00612528  11504-4  52220-3 0  9998
2 45592  53.0047 330.3810 0078712 103.2449 257.7377 16.06168662  2183
FALCON 9 DEB            
1 45593U 20025BQ  20127.47872364  .00555975  11539-4  44606-3 0  9990
2 45593  53.0047 329.9857 0075260 100.2334 260.7195 16.07490242  2190
FALCON 9 DEB            
1 45594U 20025BR  20127.48017493  .00596695  11536-4  48187-3 0  9995
2 45594  53.0054 329.9944 0075289 100.0537 260.9001 16.07394292  2196
PROGRESS-MS 14          
1 45595U 20026A   20126.53937142  .00000838  00000-0  23085-4 0  9994
2 45595  51.6442 199.5485 0001122 241.4902 251.9068 15.49349074225401
G-SAT                   
1 45597U 98067RK  20123.49895774  .00004824  00000-0  91945-4 0  9991
2 45597  51.6438 214.5758 0004614 248.6471 207.2016 15.50160417   736
QUETZAL-1               
1 45598U 98067RL  20123.49846198  .00008475  00000-0  15720-3 0  9990
2 45598  51.6450 214.5908 0002193 263.8257 183.8606 15.49834326   660
XZF CAPSULE             
1 45599U 20027A   20127.62886603 -.00000144  00000-0  00000+0 0  9993
2 45599  41.0986 324.0393 2580365 103.8834 326.8184 10.12013312   198
INFLATABLE TEST MODULE  
1 45600U 20027B   20126.97420378  .00327396  72394-5  10000-3 0  9991
2 45600  41.1024 326.2229 0153157 172.3557 299.0218 16.03267776    92
CZ-5B R/B               
1 45601U 20027C   20127.26547649  .00440044  72843-5  10000-3 0  9991
2 45601  41.1065 324.3313 0150925 172.4439 187.8494 16.06277676   140
